#dP2022 10 29 18  0  0.00000000      96 __u+U ITR00 EXT  IAC
## 2233 583200.00000000   900.00000000 59881 0.7500000000000
+  116   C06C07C08C09C10C11C12C13C14C16C19C20C21C22C23C24C25
+        C26C27C28C29C30C32C33C34C35C36C37C38C39C40C41C42C43
+        C44C45C46E01E03E04E05E07E08E09E10E11E12E13E14E15E18
+        E19E21E24E25E26E27E30E31E33E34E36G01G02G03G04G05G06
+        G07G08G09G10G11G12G13G14G15G16G17G18G19G20G21G22G23
+        G24G25G26G27G29G30G31G32J02J03J04R01R02R03R04R05R07
+        R08R09R11R12R13R14R15R17R18R19R20R21R22R24  0  0  0
++        10  9 10  9  9 10  7  9  8  9  9  8  9  9  9  7  8
++        11  7  8  8  9  8  9  9 10 10  8  7 10 11  8  9  8
++         9 11  9  7  7  8  7  7  8  8  6  7  7  7  8  7  9
++         9  9  7  8  7  6  8  8  9  8  8  9  8  6  7  7  7
++         8  7  7  8  8  8  8  7  9  7  7 10  8  8  9  7  8
++         7  8  7  8  7  8  7  6  9 10  8  9  8  9  8  9 10
++         8 10  9  8  9  9  9  8  7 10  9  9  7  9  0  0  0
%c M  cc GPS ccc cccc cccc cccc cccc ccccc ccccc ccccc ccccc
%c cc cc ccc ccc cccc cccc cccc cccc ccccc ccccc ccccc ccccc
%f  0.0000000  0.000000000  0.00000000000  0.000000000000000
%f  0.0000000  0.000000000  0.00000000000  0.000000000000000
%i    0    0    0    0      0      0      0      0         0
%i    0    0    0    0      0      0      0      0         0
/* IAC                                ULTRA-RAPID PREDICTION
/* S/V CLOCKS ARE ALIGNED TO GNSS TIME                      
/* G:C1WC2W R:C1PC2P E:C1XC5X C:C2IC6I J:C1CC2S             
/* PCV:IGS14_2218 OL/AL:FES2004  NONE     YN ORB:CoN CLK:CoN
*  2022 10 30  7 15  0.00000000
PC06  -3894.903170  25291.228136  33548.275388    881.098522
PC07 -18089.057384  33856.325202 -17569.345827    285.388635
PC08  -5059.084871  39277.397010 -14191.834145    503.739607
PC09   6670.942533  29020.626445  30414.418572   -820.729806
PC10 -11216.143628  33828.503486 -22592.631215     76.214767
PC11  -1412.756702  15707.019272 -22946.334404   -321.921994
PC12 -19409.616255   6006.898442 -19095.697974   -461.936157
PC13   1020.819679  41655.747926  -5219.366325    120.168400
PC14 -10008.188173  21596.976928  14615.660417    610.576724
PC16  -8898.526367  22616.484681  34646.161499    123.393688
PC19    600.659094 -18875.264264 -20525.643660   -921.392954
PC20  16508.596259 -21023.893948  -7972.397422    851.532797
PC21 -23658.512562  10613.736737 -10326.916673   -712.158296
PC22 -16430.809636  -5740.813845 -21826.611616   -822.169633
PC23  14768.183556  17328.976726 -16123.702092   -803.301396
PC24  -8395.221489  20897.891978  16449.713559   -856.235221
PC25   5993.959212  27229.531973   -807.924501     17.134642
PC26 -15721.306122   4242.248500  22649.050989    -28.696745
PC27  24797.115457    -65.255389  12792.073961     43.639309
PC28  24854.739924  12143.252821  -3643.076699     30.129214
PC29 -10342.307300 -17504.210356  19113.206397     33.649567
PC30  11012.592994 -12664.135689  22294.130514      0.757606
PC32  23571.698384 -10693.760519  10431.963491   -738.356782
PC33   -590.760398  18962.202374  20464.522324   -923.309115
PC34  -9790.146399  13286.302201 -22508.186827     27.998634
PC35 -24613.715383 -12089.954508   5086.240600     65.069296
PC36  -4970.045004 -27465.600167    234.300635   -880.400845
PC37  16078.330754  -2431.532671 -22663.900853   -672.617521
PC38  -9834.610203  35473.020281 -20374.959318     34.601328
PC39 -13159.733372  20470.218215  34433.861748     -0.751979
PC40 -25911.519407  29034.846331 -16483.622792     -7.059042
PC41  16060.517115   6231.011441  21998.447983   -223.858492
PC42 -17280.878209  20822.111687   6889.689553   -568.321591
PC43   9460.903327  17645.076962 -19451.883139     22.282108
PC44 -24870.780764    921.235808 -12605.055713     97.694004
PC45 -14798.740899 -17037.947068  16434.846002    -16.089013
PC46   7203.514953 -22239.481180 -15271.502252     -9.641947
PE01   9337.309415  17520.220810 -21945.059591   -556.221247
PE03 -19824.949788 -10509.494967 -19319.505340   -614.884795
PE04  29287.225133  -2231.919834   3681.628077  -1147.597158
PE05   1525.726050 -17353.819846 -23936.195003   -129.605944
PE07 -21634.211219  13999.416317  14568.027264   -717.360322
PE08 -29281.414077   2337.742245  -3688.566030   -623.873805
PE09  21750.269737 -13894.975557 -14488.975369   -711.170182
PE10  17443.026063  -2931.593332  23725.841585   -487.239446
PE11  10007.106732 -12965.748606  24647.998993   1559.226552
PE12  21609.104523   6734.359085  19078.338154   -249.647136
PE13 -10626.728634  12180.101140 -24791.465285    430.664824
PE14 -16129.163491 -13060.698444  16104.885240     42.182641
PE15 -21647.787360  -6982.383435 -18938.077974    710.761310
PE18   5545.506360  19172.419353 -23031.112719   -802.350355
PE19  17393.541857  11845.422418  20817.042155  -4131.134798
PE21  -3815.158661  27864.318100  -9213.956006   -491.683636
PE24  16307.677833 -22359.220419 -10547.550343   -919.278014
PE25   4029.079071 -27932.345297   8956.148663   -591.447567
PE26   7122.075251  24308.368672 -15299.046731  -1786.133939
PE27 -15810.374854  23060.402073   9705.370561   -427.443290
PE30 -18299.712096   3764.764142  22952.185310   -957.360120
PE31  18375.493926  -4760.222120 -22702.085151   -506.939603
PE33  19825.819081  21890.639935   1963.024081   -455.177934
PE34 -19946.013822 -21780.311485  -2135.565338    -12.031406
PE36  -6509.734450 -24007.218547  16051.413230   -453.354689
PG01  18936.390336   9402.500078  15976.543686    259.543623
PG02 -19736.298852  -7291.363383 -15486.077689   -640.173027
PG03  15790.001904    193.735613  21215.654402   -369.260857
PG04  26359.915236   1197.104685   3491.094769    -95.190124
PG05 -10304.959831 -12990.671023 -20895.961421   -102.344566
PG06  -3221.610359 -21900.150280  14684.063862    505.195520
PG07  13997.862183  -6409.755529 -21251.780057    293.337612
PG08  22157.775327   6964.345868 -13250.599976    -91.341979
PG09  24248.983536  -7888.669749  -7592.771381   -276.092640
PG10 -11149.879045  23915.780768    121.562933     -9.703912
PG11 -11481.937397 -23669.913915   3805.337644    -32.308529
PG12 -15676.303353  -1757.807600  21085.769687   -298.237472
PG13 -15163.494036 -13041.424800 -17742.790359    415.394166
PG14  13322.469968 -22826.501725  -1895.676938    -89.438276
PG15 -22828.978477  -5133.116233 -13275.958054    -16.678156
PG16   4691.790537  17977.228446 -19079.578332   -526.736091
PG17  14405.173533 -12898.031392  18681.859107    673.439504
PG18 -12432.853089   8302.664739 -21955.049373     -3.435286
PG19   2595.277958 -14660.382218  21746.723111    230.576691
PG20  -2598.722181 -23443.549519 -12420.283741    474.249003
PG21  20657.862230  14989.553645   9232.995950    157.082736
PG22    774.254233  15391.873874  22057.875017    355.071099
PG23 -15891.018945  18454.241705 -10441.600478     -1.151162
PG24 -20830.385475 -11589.334896  11809.587304     79.904011
PG25 -17634.043720  10474.857186  16427.157159    387.545416
PG26  -1485.648842  24268.921750 -10377.408537    234.199741
PG27  11834.204457  12949.579906 -20277.239566    188.724368
PG29 -25445.181290   4449.251362  -6403.995674   -563.494341
PG30   5283.992181 -17428.632214 -19158.743120   -537.063513
PG31   3621.963941  22453.293841  13170.969426   -198.516210
PG32 -10596.167756  14705.007238  19496.487177   -279.586072
PJ02 -30776.078833  27086.175512  14614.656500     -8.500851
PJ03 -25577.250328  16974.972349 -24287.287211     -3.720091
PJ04 -25898.829125  33307.773279   2310.142006    112.311135
PR01   7234.803694   8495.218504  22931.564929     17.046212
PR02  21045.897374  -4199.226789  13879.295726    -23.156039
PR03  21364.535070 -13673.061922  -2963.119940     66.369972
PR04   9982.103356 -15141.855792 -17925.172158    163.047230
PR05  -6862.572502  -8497.036239 -23045.963814    102.064404
PR07 -20996.656524  13917.589347   3857.102543     43.421904
PR08  -9653.218056  15244.934545  18062.863037    -67.860923
PR09 -11251.246033  -3371.792591  22655.300317     84.801883
PR11  -2072.373178  24992.827284   4712.856501     23.016185
PR12   6455.297986  20548.448983 -13624.125566     22.435226
PR13  10829.207030   5261.252119 -22499.808162    -28.325686
PR14   8929.765118 -15128.152953 -18474.793636     24.186556
PR15   1858.554319 -25177.770969  -3622.821085     92.952808
PR17  13661.970386  -3112.438535  21314.952253    573.599228
PR18  -1840.038519 -12711.684943  22048.496051     49.533922
PR19 -15167.129635 -16368.757619  12372.218345   -209.127115
PR20 -22003.163180 -10096.009852  -7975.134513    -81.199849
PR21 -12404.595163   4020.610993 -21926.096651   -345.644991
PR22   1926.947659  13449.148615 -21561.392819     15.103422
PR24  22308.104909   8901.102908   8577.134951    123.413772
EOF
